{"type": "FeatureCollection", "features": [ {"type": "Feature", "properties": {"norad_id": 40664, "name": "SKY MEXICO-1", "group": "intelsat", "lat": 0.021306702727525377, "lon": 72.38525718841261, "alt_km": 35797.30455311335, "timestamp": "2025-12-09T04:51:47.176068+00:00", "meta": {"OBJECT_NAME": "SKY MEXICO-1", "OBJECT_ID": "2015-026B", "EPOCH": "2025-12-08T18:19:50.121120", "MEAN_MOTION": 1.00270882, "ECCENTRICITY": 0.0002758, "INCLINATION": 0.0234, "RA_OF_ASC_NODE": 57.1528, "ARG_OF_PERICENTER": 215.8654, "MEAN_ANOMALY": 0.9408, "EPHEMERIS_TYPE": 0, "CLASSIFICATION_TYPE": "U", "NORAD_CAT_ID": 40664, "ELEMENT_SET_NO": 999, "REV_AT_EPOCH": 3854, "BSTAR": 0, "MEAN_MOTION_DOT": -2.32e-06, "MEAN_MOTION_DDOT": 0}, "tle": {"line1": "1 40664U 15026B   25342.76377455 -.00000232  00000+0  00000+0 0  9990", "line2": "2 40664   0.0234  57.1528 0002758 215.8654   0.9408  1.00270882 38541"}}, "geometry": {"type": "Point", "coordinates": [72.38525718841261, 0.021306702727525377]}}, {"type": "Feature", "properties": {"norad_id": 40874, "name": "INTELSAT 34 (IS-34)", "group": "intelsat", "lat": 0.02097756637128411, "lon": 95.63652629727245, "alt_km": 35785.92481735123, "timestamp": "2025-12-09T04:51:47.176080+00:00", "meta": {"OBJECT_NAME": "INTELSAT 34 (IS-34)", "OBJECT_ID": "2015-039A", "EPOCH": "2025-12-08T18:28:32.848896", "MEAN_MOTION": 1.00270478, "ECCENTRICITY": 8.18e-05, "INCLINATION": 0.0137, "RA_OF_ASC_NODE": 304.8803, "ARG_OF_PERICENTER": 231.1088, "MEAN_ANOMALY": 123.4262, "EPHEMERIS_TYPE": 0, "CLASSIFICATION_TYPE": "U", "NORAD_CAT_ID": 40874, "ELEMENT_SET_NO": 999, "REV_AT_EPOCH": 3771, "BSTAR": 0, "MEAN_MOTION_DOT": -2.83e-06, "MEAN_MOTION_DDOT": 0}, "tle": {"line1": "1 40874U 15039A   25342.76982464 -.00000283  00000+0  00000+0 0  9995", "line2": "2 40874   0.0137 304.8803 0000818 231.1088 123.4262  1.00270478 37719"}}, "geometry": {"type": "Point", "coordinates": [95.63652629727245, 0.02097756637128411]}}, {"type": "Feature", "properties": {"norad_id": 41581, "name": "INTELSAT 31 (IS-31)", "group": "intelsat", "lat": 0.023111142339442583, "lon": 56.06726935260934, "alt_km": 35794.61215432682, "timestamp": "2025-12-09T04:51:47.176091+00:00", "meta": {"OBJECT_NAME": "INTELSAT 31 (IS-31)", "OBJECT_ID": "2016-035A", "EPOCH": "2025-12-08T12:24:17.231040", "MEAN_MOTION": 1.00269201, "ECCENTRICITY": 0.0001923, "INCLINATION": 0.0201, "RA_OF_ASC_NODE": 270.4378, "ARG_OF_PERICENTER": 308.9004, "MEAN_ANOMALY": 309.1947, "EPHEMERIS_TYPE": 0, "CLASSIFICATION_TYPE": "U", "NORAD_CAT_ID": 41581, "ELEMENT_SET_NO": 999, "REV_AT_EPOCH": 3477, "BSTAR": 0, "MEAN_MOTION_DOT": -1.48e-06, "MEAN_MOTION_DDOT": 0}, "tle": {"line1": "1 41581U 16035A   25342.51686610 -.00000148  00000+0  00000+0 0  9995", "line2": "2 41581   0.0201 270.4378 0001923 308.9004 309.1947  1.00269201 34779"}}, "geometry": {"type": "Point", "coordinates": [56.06726935260934, 0.023111142339442583]}}, {"type": "Feature", "properties": {"norad_id": 41747, "name": "INTELSAT 36 (IS-36)", "group": "intelsat", "lat": -0.02554154731099774, "lon": -140.3807141567629, "alt_km": 35787.15946591392, "timestamp": "2025-12-09T04:51:47.176103+00:00", "meta": {"OBJECT_NAME": "INTELSAT 36 (IS-36)", "OBJECT_ID": "2016-053A", "EPOCH": "2025-12-08T12:13:07.705344", "MEAN_MOTION": 1.0026981, "ECCENTRICITY": 0.0001378, "INCLINATION": 0.0114, "RA_OF_ASC_NODE": 350.963, "ARG_OF_PERICENTER": 324.2523, "MEAN_ANOMALY": 14.0801, "EPHEMERIS_TYPE": 0, "CLASSIFICATION_TYPE": "U", "NORAD_CAT_ID": 41747, "ELEMENT_SET_NO": 999, "REV_AT_EPOCH": 3403, "BSTAR": 0, "MEAN_MOTION_DOT": -2.2e-07, "MEAN_MOTION_DDOT": 0}, "tle": {"line1": "1 41747U 16053A   25342.50911696 -.00000022  00000+0  00000+0 0  9994", "line2": "2 41747   0.0114 350.9630 0001378 324.2523  14.0801  1.00269810 34038"}}, "geometry": {"type": "Point", "coordinates": [-140.3807141567629, -0.02554154731099774]}}, {"type": "Feature", "properties": {"norad_id": 41945, "name": "INTELSAT 32E (IS-32E)", "group": "intelsat", "lat": 0.02873729675597874, "lon": 107.9765609719592, "alt_km": 35786.76431674656, "timestamp": "2025-12-09T04:51:47.176115+00:00", "meta": {"OBJECT_NAME": "INTELSAT 32E (IS-32E)", "OBJECT_ID": "2017-007B", "EPOCH": "2025-12-08T09:58:28.100928", "MEAN_MOTION": 1.00273553, "ECCENTRICITY": 2.799e-05, "INCLINATION": 0.0258, "RA_OF_ASC_NODE": 66.5377, "ARG_OF_PERICENTER": 242.4063, "MEAN_ANOMALY": 234.9251, "EPHEMERIS_TYPE": 0, "CLASSIFICATION_TYPE": "U", "NORAD_CAT_ID": 41945, "ELEMENT_SET_NO": 999, "REV_AT_EPOCH": 3231, "BSTAR": 0, "MEAN_MOTION_DOT": -2.66e-06, "MEAN_MOTION_DDOT": 0}, "tle": {"line1": "1 41945U 17007B   25342.41560302 -.00000266  00000+0  00000+0 0  9998", "line2": "2 41945   0.0258  66.5377 0000279 242.4063 234.9251  1.00273553 32314"}}, "geometry": {"type": "Point", "coordinates": [107.9765609719592, 0.02873729675597874]}}, {"type": "Feature", "properties": {"norad_id": 42818, "name": "INTELSAT 35E (IS-35E)", "group": "intelsat", "lat": 0.022592122770925017, "lon": 116.62618896504574, "alt_km": 35795.07825919726, "timestamp": "2025-12-09T04:51:47.176126+00:00", "meta": {"OBJECT_NAME": "INTELSAT 35E (IS-35E)", "OBJECT_ID": "2017-041A", "EPOCH": "2025-12-08T15:08:58.362720", "MEAN_MOTION": 1.00269468, "ECCENTRICITY": 0.0002334, "INCLINATION": 0.0186, "RA_OF_ASC_NODE": 327.2982, "ARG_OF_PERICENTER": 296.4588, "MEAN_ANOMALY": 6.6258, "EPHEMERIS_TYPE": 0, "CLASSIFICATION_TYPE": "U", "NORAD_CAT_ID": 42818, "ELEMENT_SET_NO": 999, "REV_AT_EPOCH": 3090, "BSTAR": 0, "MEAN_MOTION_DOT": -2.36e-06, "MEAN_MOTION_DDOT": 0}, "tle": {"line1": "1 42818U 17041A   25342.63123105 -.00000236  00000+0  00000+0 0  9993", "line2": "2 42818   0.0186 327.2982 0002334 296.4588   6.6258  1.00269468 30902"}}, "geometry": {"type": "Point", "coordinates": [116.62618896504574, 0.022592122770925017]}}, {"type": "Feature", "properties": {"norad_id": 42950, "name": "INTELSAT 37E (IS-37E)", "group": "intelsat", "lat": 0.02475824014252917, "lon": 133.10569366329338, "alt_km": 35793.654916638014, "timestamp": "2025-12-09T04:51:47.176138+00:00", "meta": {"OBJECT_NAME": "INTELSAT 37E (IS-37E)", "OBJECT_ID": "2017-059A", "EPOCH": "2025-12-08T18:39:16.820928", "MEAN_MOTION": 1.00270726, "ECCENTRICITY": 0.0003405, "INCLINATION": 0.0163, "RA_OF_ASC_NODE": 4.811, "ARG_OF_PERICENTER": 248.497, "MEAN_ANOMALY": 86.2911, "EPHEMERIS_TYPE": 0, "CLASSIFICATION_TYPE": "U", "NORAD_CAT_ID": 42950, "ELEMENT_SET_NO": 999, "REV_AT_EPOCH": 3015, "BSTAR": 0, "MEAN_MOTION_DOT": -1.39e-06, "MEAN_MOTION_DDOT": 0}, "tle": {"line1": "1 42950U 17059A   25342.77727802 -.00000139  00000+0  00000+0 0  9990", "line2": "2 42950   0.0163   4.8110 0003405 248.4970  86.2911  1.00270726 30153"}}, "geometry": {"type": "Point", "coordinates": [133.10569366329338, 0.02475824014252917]}}, {"type": "Feature", "properties": {"norad_id": 43632, "name": "AZERSPACE 2 (IS-38)", "group": "intelsat", "lat": -0.023866234422689158, "lon": -163.76728087854016, "alt_km": 35783.464807087286, "timestamp": "2025-12-09T04:51:47.176149+00:00", "meta": {"OBJECT_NAME": "AZERSPACE 2 (IS-38)", "OBJECT_ID": "2018-074A", "EPOCH": "2025-12-08T18:57:15.098976", "MEAN_MOTION": 1.00270055, "ECCENTRICITY": 0.0001575, "INCLINATION": 0.0176, "RA_OF_ASC_NODE": 335.5747, "ARG_OF_PERICENTER": 283.3832, "MEAN_ANOMALY": 148.2565, "EPHEMERIS_TYPE": 0, "CLASSIFICATION_TYPE": "U", "NORAD_CAT_ID": 43632, "ELEMENT_SET_NO": 999, "REV_AT_EPOCH": 2653, "BSTAR": 0, "MEAN_MOTION_DOT": 1.39e-06, "MEAN_MOTION_DDOT": 0}, "tle": {"line1": "1 43632U 18074A   25342.78975809  .00000139  00000+0  00000+0 0  9998", "line2": "2 43632   0.0176 335.5747 0001575 283.3832 148.2565  1.00270055 26532"}}, "geometry": {"type": "Point", "coordinates": [-163.76728087854016, -0.023866234422689158]}}, {"type": "Feature", "properties": {"norad_id": 43633, "name": "HORIZONS-3E", "group": "intelsat", "lat": 0.019719455493634245, "lon": -39.84604414679903, "alt_km": 35782.33261117227, "timestamp": "2025-12-09T04:51:47.176161+00:00", "meta": {"OBJECT_NAME": "HORIZONS-3E", "OBJECT_ID": "2018-074B", "EPOCH": "2025-12-08T14:38:38.662944", "MEAN_MOTION": 1.00267707, "ECCENTRICITY": 0.0001331, "INCLINATION": 0.0425, "RA_OF_ASC_NODE": 176.8531, "ARG_OF_PERICENTER": 113.5784, "MEAN_ANOMALY": 175.8576, "EPHEMERIS_TYPE": 0, "CLASSIFICATION_TYPE": "U", "NORAD_CAT_ID": 43633, "ELEMENT_SET_NO": 999, "REV_AT_EPOCH": 2643, "BSTAR": 0, "MEAN_MOTION_DOT": -2.9e-07, "MEAN_MOTION_DDOT": 0}, "tle": {"line1": "1 43633U 18074B   25342.61016971 -.00000029  00000+0  00000+0 0  9996", "line2": "2 43633   0.0425 176.8531 0001331 113.5784 175.8576  1.00267707 26434"}}, "geometry": {"type": "Point", "coordinates": [-39.84604414679903, 0.019719455493634245]}}, {"type": "Feature", "properties": {"norad_id": 44333, "name": "AT&T T-16", "group": "intelsat", "lat": 0.010833335846171901, "lon": 50.276802288137, "alt_km": 35788.06501617336, "timestamp": "2025-12-09T04:51:47.176172+00:00", "meta": {"OBJECT_NAME": "AT&T T-16", "OBJECT_ID": "2019-034A", "EPOCH": "2025-12-08T16:32:42.844128", "MEAN_MOTION": 1.00270858, "ECCENTRICITY": 8.41e-05, "INCLINATION": 0.0236, "RA_OF_ASC_NODE": 60.5589, "ARG_OF_PERICENTER": 108.7529, "MEAN_ANOMALY": 55.7048, "EPHEMERIS_TYPE": 0, "CLASSIFICATION_TYPE": "U", "NORAD_CAT_ID": 44333, "ELEMENT_SET_NO": 999, "REV_AT_EPOCH": 2372, "BSTAR": 0, "MEAN_MOTION_DOT": -1.13e-06, "MEAN_MOTION_DDOT": 0}, "tle": {"line1": "1 44333U 19034A   25342.68938477 -.00000113  00000+0  00000+0 0  9996", "line2": "2 44333   0.0236  60.5589 0000841 108.7529  55.7048  1.00270858 23722"}}, "geometry": {"type": "Point", "coordinates": [50.276802288137, 0.010833335846171901]}}]}